QIANFAN-9               
1 60387U 24140J   26024.12317755  .00000195  00000+0  28359-3 0  9994
2 60387  88.9779 294.9593 0018089  75.2167 285.0987 13.50988331 73054
QIANFAN-10              
1 60388U 24140K   26024.12731168  .00000220  00000+0  32150-3 0  9996
2 60388  88.9788 294.3102 0016442  55.0199 305.2494 13.50994287 73186
QIANFAN-11              
1 60389U 24140L   26024.16449968  .00000195  00000+0  28351-3 0  9994
2 60389  88.9715 294.8619 0016122  74.9003 285.3931 13.50993768 72843
QIANFAN-12              
1 60390U 24140M   26024.11093594  .00000222  00000+0  32471-3 0  9990
2 60390  88.9758 294.9292 0014923  82.2082 278.0763 13.50991314 72966
QIANFAN-13              
1 60391U 24140N   26024.15618160  .00000226  00000+0  33173-3 0  9991
2 60391  88.9770 295.0297 0014726  84.3882 275.8948 13.50991818 72992
QIANFAN-14              
1 60392U 24140P   26024.10674196  .00000218  00000+0  31858-3 0  9997
2 60392  88.9749 294.9234 0018415  84.7366 275.5885 13.50991314 72996
QIANFAN-15              
1 60393U 24140Q   26024.11504950  .00000208  00000+0  30350-3 0  9994
2 60393  88.9772 294.8891 0014247  72.4301 287.8405 13.50989738 72983
QIANFAN-16              
1 60394U 24140R   26024.10267061  .00000210  00000+0  30604-3 0  9998
2 60394  88.9776 295.0117 0016328  88.1511 272.1510 13.50995220 72898
